{
  "type": "FeatureCollection",
  "features": [
    {
      "type": "Feature",
      "properties": {
        "norad_id": 66482,
        "name": "STARLINK-35648",
        "group": "last-30-days",
        "lat": -16.756564767009806,
        "lon": 47.31788033507558,
        "alt_km": 415.20625046593887,
        "timestamp": "2025-12-13T13:34:33.863376+00:00",
        "meta_object_name": "STARLINK-35648",
        "meta_object_id": "2025-262AC",
        "meta_epoch": "2025-12-12T14:29:46.171968",
        "meta_mean_motion": 15.50598416,
        "meta_eccentricity": 0.00021564,
        "meta_inclination": 43.0007,
        "meta_ra_of_asc_node": 71.796,
        "meta_arg_of_pericenter": 270.5345,
        "meta_mean_anomaly": 89.5268,
        "meta_ephemeris_type": 0,
        "meta_classification_type": "U",
        "meta_norad_cat_id": 66482,
        "meta_element_set_no": 999,
        "meta_rev_at_epoch": 538,
        "meta_bstar": 0.0020139556,
        "meta_mean_motion_dot": 0.00119716,
        "meta_mean_motion_ddot": 0,
        "tle_line1": "1 66482U 25262AC  25346.60400662  .00119716  00000+0  20140-2 0  9990",
        "tle_line2": "2 66482  43.0007  71.7960 0002156 270.5345  89.5268 15.50598416  5380"
      },
      "geometry": {
        "type": "Point",
        "coordinates": [
          47.31788033507558,
          -16.756564767009806
        ]
      }
    },
    {
      "type": "Feature",
      "properties": {
        "norad_id": 66483,
        "name": "STARLINK-35654",
        "group": "last-30-days",
        "lat": -15.614352614295509,
        "lon": 48.710563115862165,
        "alt_km": 415.4507673032276,
        "timestamp": "2025-12-13T13:34:33.863385+00:00",
        "meta_object_name": "STARLINK-35654",
        "meta_object_id": "2025-262AD",
        "meta_epoch": "2025-12-12T14:29:16.366560",
        "meta_mean_motion": 15.50593052,
        "meta_eccentricity": 0.00019289,
        "meta_inclination": 43.0006,
        "meta_ra_of_asc_node": 71.7917,
        "meta_arg_of_pericenter": 271.6407,
        "meta_mean_anomaly": 88.4232,
        "meta_ephemeris_type": 0,
        "meta_classification_type": "U",
        "meta_norad_cat_id": 66483,
        "meta_element_set_no": 999,
        "meta_rev_at_epoch": 554,
        "meta_bstar": 0.0012716374,
        "meta_mean_motion_dot": 0.00075016,
        "meta_mean_motion_ddot": 0,
        "tle_line1": "1 66483U 25262AD  25346.60366165  .00075016  00000+0  12716-2 0  9994",
        "tle_line2": "2 66483  43.0006  71.7917 0001928 271.6407  88.4232 15.50593052  5547"
      },
      "geometry": {
        "type": "Point",
        "coordinates": [
          48.710563115862165,
          -15.614352614295509
        ]
      }
    },
    {
      "type": "Feature",
      "properties": {
        "norad_id": 66484,
        "name": "STARLINK-35371",
        "group": "last-30-days",
        "lat": -14.561003179834278,
        "lon": 49.97782398538464,
        "alt_km": 415.90987533831867,
        "timestamp": "2025-12-13T13:34:33.863394+00:00",
        "meta_object_name": "STARLINK-35371",
        "meta_object_id": "2025-262AE",
        "meta_epoch": "2025-12-12T16:01:32.219328",
        "meta_mean_motion": 15.50574998,
        "meta_eccentricity": 0.00014167,
        "meta_inclination": 43.0018,
        "meta_ra_of_asc_node": 71.4158,
        "meta_arg_of_pericenter": 278.2184,
        "meta_mean_anomaly": 81.8515,
        "meta_ephemeris_type": 0,
        "meta_classification_type": "U",
        "meta_norad_cat_id": 66484,
        "meta_element_set_no": 999,
        "meta_rev_at_epoch": 555,
        "meta_bstar": 7.4960958e-05,
        "meta_mean_motion_dot": 4.058e-05,
        "meta_mean_motion_ddot": 0,
        "tle_line1": "1 66484U 25262AE  25346.66773402  .00004058  00000+0  74961-4 0  9997",
        "tle_line2": "2 66484  43.0018  71.4158 0001416 278.2184  81.8515 15.50574998  5552"
      },
      "geometry": {
        "type": "Point",
        "coordinates": [
          49.97782398538464,
          -14.561003179834278
        ]
      }
    },
    {
      "type": "Feature",
      "properties": {
        "norad_id": 66485,
        "name": "STARLINK-34774",
        "group": "last-30-days",
        "lat": 42.97956576425547,
        "lon": -148.95630041971515,
        "alt_km": 437.9546748877119,
        "timestamp": "2025-12-13T13:34:33.863403+00:00",
        "meta_object_name": "STARLINK-34774",
        "meta_object_id": "2025-263A",
        "meta_epoch": "2025-12-12T20:00:01.999872",
        "meta_mean_motion": 15.40639052,
        "meta_eccentricity": 0.00021578,
        "meta_inclination": 43.0005,
        "meta_ra_of_asc_node": 124.8753,
        "meta_arg_of_pericenter": 299.7991,
        "meta_mean_anomaly": 43.7258,
        "meta_ephemeris_type": 0,
        "meta_classification_type": "U",
        "meta_norad_cat_id": 66485,
        "meta_element_set_no": 999,
        "meta_rev_at_epoch": 565,
        "meta_bstar": 0.0035956454,
        "meta_mean_motion_dot": 0.0015263,
        "meta_mean_motion_ddot": 0,
        "tle_line1": "1 66485U 25263A   25346.83335648  .00152630  00000+0  35956-2 0  9993",
        "tle_line2": "2 66485  43.0005 124.8753 0002157 299.7991  43.7258 15.40639052  5654"
      },
      "geometry": {
        "type": "Point",
        "coordinates": [
          -148.95630041971515,
          42.97956576425547
        ]
      }
    },
    {
      "type": "Feature",
      "properties": {
        "norad_id": 66486,
        "name": "STARLINK-34844",
        "group": "last-30-days",
        "lat": -26.083381146514075,
        "lon": -27.975352319650597,
        "alt_km": 415.1122437455333,
        "timestamp": "2025-12-13T13:34:33.863413+00:00",
        "meta_object_name": "STARLINK-34844",
        "meta_object_id": "2025-263B",
        "meta_epoch": "2025-12-12T18:04:51.581856",
        "meta_mean_motion": 15.50610983,
        "meta_eccentricity": 0.00035451,
        "meta_inclination": 43,
        "meta_ra_of_asc_node": 125.0869,
        "meta_arg_of_pericenter": 256.707,
        "meta_mean_anomaly": 103.3395,
        "meta_ephemeris_type": 0,
        "meta_classification_type": "U",
        "meta_norad_cat_id": 66486,
        "meta_element_set_no": 999,
        "meta_rev_at_epoch": 551,
        "meta_bstar": 0.0017533751,
        "meta_mean_motion_dot": 0.00104031,
        "meta_mean_motion_ddot": 0,
        "tle_line1": "1 66486U 25263B   25346.75337479  .00104031  00000+0  17534-2 0  9993",
        "tle_line2": "2 66486  43.0000 125.0869 0003545 256.7070 103.3395 15.50610983  5517"
      },
      "geometry": {
        "type": "Point",
        "coordinates": [
          -27.975352319650597,
          -26.083381146514075
        ]
      }
    },
    {
      "type": "Feature",
      "properties": {
        "norad_id": 66487,
        "name": "STARLINK-34733",
        "group": "last-30-days",
        "lat": 1.6957363721059648,
        "lon": -61.37787664255143,
        "alt_km": 444.7399662884918,
        "timestamp": "2025-12-13T13:34:33.863423+00:00",
        "meta_object_name": "STARLINK-34733",
        "meta_object_id": "2025-263C",
        "meta_epoch": "2025-12-12T20:00:01.999872",
        "meta_mean_motion": 15.43222521,
        "meta_eccentricity": 0.00014741,
        "meta_inclination": 42.9998,
        "meta_ra_of_asc_node": 124.6705,
        "meta_arg_of_pericenter": 279.3579,
        "meta_mean_anomaly": 148.562,
        "meta_ephemeris_type": 0,
        "meta_classification_type": "U",
        "meta_norad_cat_id": 66487,
        "meta_element_set_no": 999,
        "meta_rev_at_epoch": 565,
        "meta_bstar": -0.044122351,
        "meta_mean_motion_dot": -0.01808202,
        "meta_mean_motion_ddot": 0,
        "tle_line1": "1 66487U 25263C   25346.83335648 -.01808202  00000+0 -44122-1 0  9995",
        "tle_line2": "2 66487  42.9998 124.6705 0001474 279.3579 148.5620 15.43222521  5656"
      },
      "geometry": {
        "type": "Point",
        "coordinates": [
          -61.37787664255143,
          1.6957363721059648
        ]
      }
    },
    {
      "type": "Feature",
      "properties": {
        "norad_id": 66488,
        "name": "STARLINK-35515",
        "group": "last-30-days",
        "lat": -28.280243110355535,
        "lon": -24.40860621002876,
        "alt_km": 416.3667107321007,
        "timestamp": "2025-12-13T13:34:33.863432+00:00",
        "meta_object_name": "STARLINK-35515",
        "meta_object_id": "2025-263D",
        "meta_epoch": "2025-12-12T18:03:52.675200",
        "meta_mean_motion": 15.50621781,
        "meta_eccentricity": 0.00017843,
        "meta_inclination": 42.9981,
        "meta_ra_of_asc_node": 125.082,
        "meta_arg_of_pericenter": 275.9827,
        "meta_mean_anomaly": 84.083,
        "meta_ephemeris_type": 0,
        "meta_classification_type": "U",
        "meta_norad_cat_id": 66488,
        "meta_element_set_no": 999,
        "meta_rev_at_epoch": 556,
        "meta_bstar": 0.001731538,
        "meta_mean_motion_dot": 0.0010274,
        "meta_mean_motion_ddot": 0,
        "tle_line1": "1 66488U 25263D   25346.75269300  .00102740  00000+0  17315-2 0  9994",
        "tle_line2": "2 66488  42.9981 125.0820 0001784 275.9827  84.0830 15.50621781  5560"
      },
      "geometry": {
        "type": "Point",
        "coordinates": [
          -24.40860621002876,
          -28.280243110355535
        ]
      }
    }
  ]
}